STARLINK-1659
1 26534C 20070C   21325.17865767  .00002743  00000-0  18384-3 0  3257
2 26534  53.0539  22.4287 0001307  71.9676 313.7239 15.06390581    18
